CCSDS_OMM_VERS = 2.0
CREATION_DATE  = 
ORIGINATOR     = 

OBJECT_NAME    = DELTA 1 R/B
OBJECT_ID      = 1989-089B
CENTER_NAME    = EARTH
REF_FRAME      = TEME
TIME_SYSTEM    = UTC
MEAN_ELEMENT_THEORY = SGP/SGP4

EPOCH          = 2025-11-16T11:54:20.537856
MEAN_MOTION    = 14.50541883
ECCENTRICITY   = .0070558
INCLINATION    = 97.0775
RA_OF_ASC_NODE = 180.8902
ARG_OF_PERICENTER = 119.6054
MEAN_ANOMALY   = 241.2198

EPHEMERIS_TYPE = 0
CLASSIFICATION_TYPE = U
NORAD_CAT_ID   = 20323
ELEMENT_SET_NO = 999
REV_AT_EPOCH   = 87932
BSTAR          = .19243E-3
MEAN_MOTION_DOT = .743E-5
MEAN_MOTION_DDOT = 0

CCSDS_OMM_VERS = 2.0
CREATION_DATE  = 
ORIGINATOR     = 

OBJECT_NAME    = ARIANE 40 R/B
OBJECT_ID      = 1990-005H
CENTER_NAME    = EARTH
REF_FRAME      = TEME
TIME_SYSTEM    = UTC
MEAN_ELEMENT_THEORY = SGP/SGP4

EPOCH          = 2025-11-16T09:36:45.221760
MEAN_MOTION    = 14.39770345
ECCENTRICITY   = .0010204
INCLINATION    = 98.3282
RA_OF_ASC_NODE = 19.3184
ARG_OF_PERICENTER = 179.1750
MEAN_ANOMALY   = 180.9458

EPHEMERIS_TYPE = 0
CLASSIFICATION_TYPE = U
NORAD_CAT_ID   = 20443
ELEMENT_SET_NO = 999
REV_AT_EPOCH   = 87650
BSTAR          = .23836E-3
MEAN_MOTION_DOT = .705E-5
MEAN_MOTION_DDOT = 0

CCSDS_OMM_VERS = 2.0
CREATION_DATE  = 
ORIGINATOR     = 

OBJECT_NAME    = DELTA 2 R/B(1)
OBJECT_ID      = 1990-008B
CENTER_NAME    = EARTH
REF_FRAME      = TEME
TIME_SYSTEM    = UTC
MEAN_ELEMENT_THEORY = SGP/SGP4

EPOCH          = 2025-11-16T08:49:38.289792
MEAN_MOTION    = 15.42843935
ECCENTRICITY   = .0117235
INCLINATION    = 35.6067
RA_OF_ASC_NODE = 190.5066
ARG_OF_PERICENTER = 297.8344
MEAN_ANOMALY   = 61.0550

EPHEMERIS_TYPE = 0
CLASSIFICATION_TYPE = U
NORAD_CAT_ID   = 20453
ELEMENT_SET_NO = 999
REV_AT_EPOCH   = 90855
BSTAR          = .81286E-3
MEAN_MOTION_DOT = .4767E-3
MEAN_MOTION_DDOT = 0

CCSDS_OMM_VERS = 2.0
CREATION_DATE  = 
ORIGINATOR     = 

OBJECT_NAME    = COSMOS 2058
OBJECT_ID      = 1990-010A
CENTER_NAME    = EARTH
REF_FRAME      = TEME
TIME_SYSTEM    = UTC
MEAN_ELEMENT_THEORY = SGP/SGP4

EPOCH          = 2025-11-16T12:30:55.458144
MEAN_MOTION    = 15.10174094
ECCENTRICITY   = .0010705
INCLINATION    = 82.4644
RA_OF_ASC_NODE = 158.8246
ARG_OF_PERICENTER = 12.3490
MEAN_ANOMALY   = 347.8000

EPHEMERIS_TYPE = 0
CLASSIFICATION_TYPE = U
NORAD_CAT_ID   = 20465
ELEMENT_SET_NO = 999
REV_AT_EPOCH   = 92515
BSTAR          = .31775E-3
MEAN_MOTION_DOT = .522E-4
MEAN_MOTION_DDOT = 0

CCSDS_OMM_VERS = 2.0
CREATION_DATE  = 
ORIGINATOR     = 

OBJECT_NAME    = SL-14 R/B
OBJECT_ID      = 1990-010B
CENTER_NAME    = EARTH
REF_FRAME      = TEME
TIME_SYSTEM    = UTC
MEAN_ELEMENT_THEORY = SGP/SGP4

EPOCH          = 2025-11-16T10:32:27.616992
MEAN_MOTION    = 14.83437898
ECCENTRICITY   = .0018722
INCLINATION    = 82.5044
RA_OF_ASC_NODE = 13.7462
ARG_OF_PERICENTER = 316.3517
MEAN_ANOMALY   = 43.6216

EPHEMERIS_TYPE = 0
CLASSIFICATION_TYPE = U
NORAD_CAT_ID   = 20466
ELEMENT_SET_NO = 999
REV_AT_EPOCH   = 91169
BSTAR          = .10138E-3
MEAN_MOTION_DOT = .858E-5
MEAN_MOTION_DDOT = 0

CCSDS_OMM_VERS = 2.0
CREATION_DATE  = 
ORIGINATOR     = 

OBJECT_NAME    = SL-14 R/B
OBJECT_ID      = 1990-018B
CENTER_NAME    = EARTH
REF_FRAME      = TEME
TIME_SYSTEM    = UTC
MEAN_ELEMENT_THEORY = SGP/SGP4

EPOCH          = 2025-11-16T11:35:47.324832
MEAN_MOTION    = 14.82010188
ECCENTRICITY   = .0017919
INCLINATION    = 82.5203
RA_OF_ASC_NODE = 328.9092
ARG_OF_PERICENTER = 103.5905
MEAN_ANOMALY   = 256.7306

EPHEMERIS_TYPE = 0
CLASSIFICATION_TYPE = U
NORAD_CAT_ID   = 20511
ELEMENT_SET_NO = 999
REV_AT_EPOCH   = 90581
BSTAR          = .99051E-4
MEAN_MOTION_DOT = .811E-5
MEAN_MOTION_DDOT = 0

CCSDS_OMM_VERS = 2.0
CREATION_DATE  = 
ORIGINATOR     = 

OBJECT_NAME    = HST
OBJECT_ID      = 1990-037B
CENTER_NAME    = EARTH
REF_FRAME      = TEME
TIME_SYSTEM    = UTC
MEAN_ELEMENT_THEORY = SGP/SGP4

EPOCH          = 2025-11-15T16:23:38.440320
MEAN_MOTION    = 15.27534136
ECCENTRICITY   = .0001376
INCLINATION    = 28.4677
RA_OF_ASC_NODE = 96.5739
ARG_OF_PERICENTER = 302.9143
MEAN_ANOMALY   = 57.1320

EPHEMERIS_TYPE = 0
CLASSIFICATION_TYPE = U
NORAD_CAT_ID   = 20580
ELEMENT_SET_NO = 999
REV_AT_EPOCH   = 75585
BSTAR          = .32437E-3
MEAN_MOTION_DOT = .9217E-4
MEAN_MOTION_DDOT = 0

CCSDS_OMM_VERS = 2.0
CREATION_DATE  = 
ORIGINATOR     = 

OBJECT_NAME    = SL-16 R/B
OBJECT_ID      = 1990-046B
CENTER_NAME    = EARTH
REF_FRAME      = TEME
TIME_SYSTEM    = UTC
MEAN_ELEMENT_THEORY = SGP/SGP4

EPOCH          = 2025-11-16T07:21:50.796288
MEAN_MOTION    = 14.14990202
ECCENTRICITY   = .0012308
INCLINATION    = 70.9962
RA_OF_ASC_NODE = 176.0330
ARG_OF_PERICENTER = 121.7729
MEAN_ANOMALY   = 238.4595

EPHEMERIS_TYPE = 0
CLASSIFICATION_TYPE = U
NORAD_CAT_ID   = 20625
ELEMENT_SET_NO = 999
REV_AT_EPOCH   = 83235
BSTAR          = -.17588E-4
MEAN_MOTION_DOT = -.82E-6
MEAN_MOTION_DDOT = 0

CCSDS_OMM_VERS = 2.0
CREATION_DATE  = 
ORIGINATOR     = 

OBJECT_NAME    = COSMOS 2084
OBJECT_ID      = 1990-055A
CENTER_NAME    = EARTH
REF_FRAME      = TEME
TIME_SYSTEM    = UTC
MEAN_ELEMENT_THEORY = SGP/SGP4

EPOCH          = 2025-11-16T10:53:54.523392
MEAN_MOTION    = 15.04800577
ECCENTRICITY   = .0035956
INCLINATION    = 62.7922
RA_OF_ASC_NODE = 1.5427
ARG_OF_PERICENTER = 171.5893
MEAN_ANOMALY   = 188.5818

EPHEMERIS_TYPE = 0
CLASSIFICATION_TYPE = U
NORAD_CAT_ID   = 20663
ELEMENT_SET_NO = 999
REV_AT_EPOCH   = 91927
BSTAR          = .31516E-3
MEAN_MOTION_DOT = .433E-4
MEAN_MOTION_DDOT = 0

CCSDS_OMM_VERS = 2.0
CREATION_DATE  = 
ORIGINATOR     = 

OBJECT_NAME    = SL-6 R/B(2)
OBJECT_ID      = 1990-055D
CENTER_NAME    = EARTH
REF_FRAME      = TEME
TIME_SYSTEM    = UTC
MEAN_ELEMENT_THEORY = SGP/SGP4

EPOCH          = 2025-11-16T05:18:12.419712
MEAN_MOTION    = 15.02897072
ECCENTRICITY   = .0010894
INCLINATION    = 62.7834
RA_OF_ASC_NODE = 279.5082
ARG_OF_PERICENTER = 286.1309
MEAN_ANOMALY   = 73.8591

EPHEMERIS_TYPE = 0
CLASSIFICATION_TYPE = U
NORAD_CAT_ID   = 20666
ELEMENT_SET_NO = 999
REV_AT_EPOCH   = 92113
BSTAR          = .3237E-3
MEAN_MOTION_DOT = .4176E-4
MEAN_MOTION_DDOT = 0

CCSDS_OMM_VERS = 2.0
CREATION_DATE  = 
ORIGINATOR     = 

OBJECT_NAME    = SL-8 R/B
OBJECT_ID      = 1990-078B
CENTER_NAME    = EARTH
REF_FRAME      = TEME
TIME_SYSTEM    = UTC
MEAN_ELEMENT_THEORY = SGP/SGP4

EPOCH          = 2025-11-16T10:56:11.885568
MEAN_MOTION    = 14.84459354
ECCENTRICITY   = .038001
INCLINATION    = 82.9070
RA_OF_ASC_NODE = 352.8068
ARG_OF_PERICENTER = 33.9368
MEAN_ANOMALY   = 328.5537

EPHEMERIS_TYPE = 0
CLASSIFICATION_TYPE = U
NORAD_CAT_ID   = 20775
ELEMENT_SET_NO = 999
REV_AT_EPOCH   = 79247
BSTAR          = .70941E-3
MEAN_MOTION_DOT = .22974E-3
MEAN_MOTION_DDOT = 0

CCSDS_OMM_VERS = 2.0
CREATION_DATE  = 
ORIGINATOR     = 

OBJECT_NAME    = SL-8 R/B
OBJECT_ID      = 1991-006B
CENTER_NAME    = EARTH
REF_FRAME      = TEME
TIME_SYSTEM    = UTC
MEAN_ELEMENT_THEORY = SGP/SGP4

EPOCH          = 2025-11-16T07:42:02.494080
MEAN_MOTION    = 13.77485299
ECCENTRICITY   = .0022522
INCLINATION    = 82.9419
RA_OF_ASC_NODE = 254.3633
ARG_OF_PERICENTER = 356.5079
MEAN_ANOMALY   = 113.7114

EPHEMERIS_TYPE = 0
CLASSIFICATION_TYPE = U
NORAD_CAT_ID   = 21088
ELEMENT_SET_NO = 999
REV_AT_EPOCH   = 74846
BSTAR          = .15033E-3
MEAN_MOTION_DOT = .165E-5
MEAN_MOTION_DDOT = 0

