DELTA 1 R/B             
1 20323U 89089B   25320.49607104  .00000743  00000+0  19243-3 0  9992
2 20323  97.0775 180.8902 0070558 119.6054 241.2198 14.50541883879321
ARIANE 40 R/B           
1 20443U 90005H   25320.40052340  .00000705  00000+0  23836-3 0  9993
2 20443  98.3282  19.3184 0010204 179.1750 180.9458 14.39770345876504
DELTA 2 R/B(1)          
1 20453U 90008B   25320.36780428  .00047670  00000+0  81286-3 0  9992
2 20453  35.6067 190.5066 0117235 297.8344  61.0550 15.42843935908554
COSMOS 2058             
1 20465U 90010A   25320.52147521  .00005220  00000+0  31775-3 0  9990
2 20465  82.4644 158.8246 0010705  12.3490 347.8000 15.10174094925159
SL-14 R/B               
1 20466U 90010B   25320.43920853  .00000858  00000+0  10138-3 0  9990
2 20466  82.5044  13.7462 0018722 316.3517  43.6216 14.83437898911695
SL-14 R/B               
1 20511U 90018B   25320.48318663  .00000811  00000+0  99051-4 0  9995
2 20511  82.5203 328.9092 0017919 103.5905 256.7306 14.82010188905819
HST                     
1 20580U 90037B   25319.68308380  .00009217  00000+0  32437-3 0  9990
2 20580  28.4677  96.5739 0001376 302.9143  57.1320 15.27534136755854
SL-16 R/B               
1 20625U 90046B   25320.30683792 -.00000082  00000+0 -17588-4 0  9998
2 20625  70.9962 176.0330 0012308 121.7729 238.4595 14.14990202832352
COSMOS 2084             
1 20663U 90055A   25320.45410328  .00004330  00000+0  31516-3 0  9993
2 20663  62.7922   1.5427 0035956 171.5893 188.5818 15.04800577919272
SL-6 R/B(2)             
1 20666U 90055D   25320.22097708  .00004176  00000+0  32370-3 0  9991
2 20666  62.7834 279.5082 0010894 286.1309  73.8591 15.02897072921136
SL-8 R/B                
1 20775U 90078B   25320.45569312  .00022974  00000+0  70941-3 0  9999
2 20775  82.9070 352.8068 0380010  33.9368 328.5537 14.84459354792474
SL-8 R/B                
1 21088U 91006B   25320.32086220  .00000165  00000+0  15033-3 0  9996
2 21088  82.9419 254.3633 0022522 356.5079 113.7114 13.77485299748460
